[{"OBJECT_NAME":"STARLINK-34732","OBJECT_ID":"2025-158Z","EPOCH":"2026-03-09T12:50:54.515616","MEAN_MOTION":15.05652348,"ECCENTRICITY":0.00028479,"INCLINATION":97.6019,"RA_OF_ASC_NODE":293.9519,"ARG_OF_PERICENTER":87.1761,"MEAN_ANOMALY":272.9791,"EPHEMERIS_TYPE":0,"CLASSIFICATION_TYPE":"U","NORAD_CAT_ID":64955,"ELEMENT_SET_NO":999,"REV_AT_EPOCH":3533,"BSTAR":0.00041751075,"MEAN_MOTION_DOT":5.969e-5,"MEAN_MOTION_DDOT":0},{"OBJECT_NAME":"CZ-4C DEB","OBJECT_ID":"2016-049F","EPOCH":"2026-03-09T07:30:38.295072","MEAN_MOTION":14.98603573,"ECCENTRICITY":0.00676497,"INCLINATION":98.3214,"RA_OF_ASC_NODE":204.4397,"ARG_OF_PERICENTER":163.6943,"MEAN_ANOMALY":196.6477,"EPHEMERIS_TYPE":0,"CLASSIFICATION_TYPE":"U","NORAD_CAT_ID":43601,"ELEMENT_SET_NO":999,"REV_AT_EPOCH":61767,"BSTAR":0.0021508763,"MEAN_MOTION_DOT":0.00027067,"MEAN_MOTION_DDOT":0}]
